[{"OBJECT_NAME":"STARLINK-34262","OBJECT_ID":"2025-139AA","EPOCH":"2026-03-09T10:08:00.213216","MEAN_MOTION":15.30193035,"ECCENTRICITY":0.00011241,"INCLINATION":53.1601,"RA_OF_ASC_NODE":128.2399,"ARG_OF_PERICENTER":75.8582,"MEAN_ANOMALY":284.2544,"EPHEMERIS_TYPE":0,"CLASSIFICATION_TYPE":"U","NORAD_CAT_ID":64688,"ELEMENT_SET_NO":999,"REV_AT_EPOCH":4030,"BSTAR":0.00049277059,"MEAN_MOTION_DOT":0.0001426,"MEAN_MOTION_DDOT":0},{"OBJECT_NAME":"OBJECT D","OBJECT_ID":"2021-102D","EPOCH":"2026-03-09T14:47:14.426880","MEAN_MOTION":15.2846442,"ECCENTRICITY":0.0009157,"INCLINATION":97.3342,"RA_OF_ASC_NODE":112.2633,"ARG_OF_PERICENTER":187.6206,"MEAN_ANOMALY":172.4897,"EPHEMERIS_TYPE":0,"CLASSIFICATION_TYPE":"U","NORAD_CAT_ID":49398,"ELEMENT_SET_NO":999,"REV_AT_EPOCH":23880,"BSTAR":0.00046011,"MEAN_MOTION_DOT":0.00012697,"MEAN_MOTION_DDOT":0}]
